H1 CPF  1  MCC 2022  4  4 15  5941 larets
H2  0304206 5557    27944 2022 04 03 23 45 00 2022 04 08 23 57 00   180 1 1  0 0 0
H9
10 0 59675 56700.000000 0       905783.714       682449.528      6955467.106
10 0 59675 56880.000000 0      2098017.558        58065.223      6726730.374
10 0 59675 57060.000000 0      3196947.109      -598510.561      6250971.777
10 0 59675 57240.000000 0      4161918.864     -1260338.777      5545471.769
10 0 59675 57420.000000 0      4957829.525     -1899254.571      4635991.906
10 0 59675 57600.000000 0      5556459.919     -2487068.745      3555868.041
10 0 59675 57780.000000 0      5937544.245     -2996816.194      2344801.753
10 0 59675 57960.000000 0      6089512.273     -3403992.476      1047382.760
10 0 59675 58140.000000 0      6009866.978     -3687715.012      -288597.186
10 0 59675 58320.000000 0      5705172.540     -3831744.589     -1613971.670
10 0 59675 58500.000000 0      5190650.042     -3825308.782     -2880081.713
10 0 59675 58680.000000 0      4489406.817     -3663684.706     -4040616.727
10 0 59675 58860.000000 0      3631350.580     -3348517.192     -5053331.691
10 0 59675 59040.000000 0      2651853.450     -2887860.335     -5881568.064
10 0 59675 59220.000000 0      1590245.962     -2295952.137     -6495523.501
10 0 59675 59400.000000 0       488216.390     -1592744.215     -6873249.210
10 0 59675 59580.000000 0      -611824.732      -803202.979     -7001354.511
10 0 59675 59760.000000 0     -1668348.523        43581.345     -6875411.108
10 0 59675 59940.000000 0     -2642234.267       915449.380     -6500068.787
10 0 59675 60120.000000 0     -3498176.935      1778362.593     -5888885.178
10 0 59675 60300.000000 0     -4205941.416      2597696.648     -5063878.845
10 0 59675 60480.000000 0     -4741434.292      3339604.521     -4054802.235
10 0 59675 60660.000000 0     -5087548.057      3972400.883     -2898136.099
10 0 59675 60840.000000 0     -5234742.806      4467913.268     -1635830.119
10 0 59675 61020.000000 0     -5181336.502      4802739.136      -313816.325
10 0 59675 61200.000000 0     -4933481.583      4959345.998      1019658.739
10 0 59675 61380.000000 0     -4504816.598      4926951.200      2315820.595
10 0 59675 61560.000000 0     -3915803.102      4702127.212      3527191.347
10 0 59675 61740.000000 0     -3192780.197      4289101.923      4609364.889
10 0 59675 61920.000000 0     -2366792.002      3699739.209      5522658.394
10 0 59675 62100.000000 0     -1472244.366      2953199.884      6233575.742
10 0 59675 62280.000000 0      -545455.969      2075299.350      6716025.256
10 0 59675 62460.000000 0       376824.865      1097594.915      6952254.870
10 0 59675 62640.000000 0      1258880.337        56240.883      6933490.650
10 0 59675 62820.000000 0      2067411.308     -1009351.053      6660262.085
10 0 59675 63000.000000 0      2772804.998     -2058005.963      6142409.024
10 0 59675 63180.000000 0      3350242.415     -3048387.317      5398762.893
10 0 59675 63360.000000 0      3780604.823     -3940650.634      4456500.569
10 0 59675 63540.000000 0      4051142.353     -4698085.397      3350181.395
10 0 59675 63720.000000 0      4155874.080     -5288674.710      2120486.613
10 0 59675 63900.000000 0      4095695.739     -5686494.935       812700.574
10 0 59675 64080.000000 0      3878185.534     -5872878.639      -525007.343
10 0 59675 64260.000000 0      3517118.948     -5837279.400     -1843422.658
10 0 59675 64440.000000 0      3031714.866     -5577790.610     -3094166.788
10 0 59675 64620.000000 0      2445658.023     -5101290.854     -4231524.513
10 0 59675 64800.000000 0      1785952.421     -4423214.799     -5214134.427
10 0 59675 64980.000000 0      1081675.542     -3566974.210     -6006467.433
10 0 59675 65160.000000 0       362702.038     -2563074.847     -6580049.922
10 0 59675 65340.000000 0      -341550.041     -1447977.499     -6914406.680
10 0 59675 65520.000000 0     -1003296.833      -262751.502     -6997710.199
10 0 59675 65700.000000 0     -1597451.314       948427.190     -6827135.617
10 0 59675 65880.000000 0     -2102544.281      2139885.591     -6408925.119
10 0 59675 66060.000000 0     -2501477.141      3266129.551     -5758170.458
10 0 59675 66240.000000 0     -2782091.211      4283545.097     -4898316.769
10 0 59675 66420.000000 0     -2937536.932      5152076.080     -3860384.946
10 0 59675 66600.000000 0     -2966426.246      5836814.151     -2681917.036
10 0 59675 66780.000000 0     -2872757.986      6309434.306     -1405674.322
10 0 59675 66960.000000 0     -2665617.372      6549415.404       -78116.068
10 0 59675 67140.000000 0     -2358659.016      6544974.221      1252289.729
10 0 59675 67320.000000 0     -1969392.540      6293662.312      2536867.434
10 0 59675 67500.000000 0     -1518297.224      5802567.502      3728558.849
10 0 59675 67680.000000 0     -1027822.724      5088121.850      4783678.703
10 0 59675 67860.000000 0      -521325.912      4175528.888      5663537.956
10 0 59675 68040.000000 0       -21991.623      3097835.442      6335864.137
10 0 59675 68220.000000 0       448203.102      1894698.531      6775972.327
10 0 59675 68400.000000 0       869440.073       610898.989      6967653.117
10 0 59675 68580.000000 0      1224888.408      -705339.322      6903755.946
10 0 59675 68760.000000 0      1501379.330     -2004165.299      6586460.344
10 0 59675 68940.000000 0      1689904.386     -3235999.667      6027225.758
10 0 59675 69120.000000 0      1785918.442     -4353453.211      5246411.999
10 0 59675 69300.000000 0      1789435.585     -5313190.094      4272572.370
10 0 59675 69480.000000 0      1704917.886     -6077668.119      3141439.440
10 0 59675 69660.000000 0      1540955.379     -6616681.797      1894615.898
10 0 59675 69840.000000 0      1309749.743     -6908621.997       578019.328
10 0 59675 70020.000000 0      1026427.792     -6941394.089      -759858.728
10 0 59675 70200.000000 0       708214.473     -6712934.988     -2069813.737
10 0 59675 70380.000000 0       373515.079     -6231286.159     -3303809.366
10 0 59675 70560.000000 0        40964.091     -5514239.920     -4416782.245
10 0 59675 70740.000000 0      -271512.473     -4588588.130     -5368297.858
10 0 59675 70920.000000 0      -547573.579     -3489023.094     -6123987.513
10 0 59675 71100.000000 0      -773235.698     -2256758.388     -6656725.251
10 0 59675 71280.000000 0      -937510.280      -937937.817     -6947518.765
10 0 59675 71460.000000 0     -1032885.486       418098.752     -6986106.206
10 0 59675 71640.000000 0     -1055637.500      1760633.550     -6771259.249
10 0 59675 71820.000000 0     -1005964.746      3039417.946     -6310798.464
10 0 59675 72000.000000 0      -887943.515      4206504.671     -5621328.862
10 0 59675 72180.000000 0      -709305.911      5218018.794     -4727693.087
10 0 59675 72360.000000 0      -481047.600      6035810.791     -3662144.440
10 0 59675 72540.000000 0      -216878.188      6628930.385     -2463247.717
10 0 59675 72720.000000 0        67467.094      6974855.996     -1174533.345
10 0 59675 72900.000000 0       355025.236      7060419.880       157060.190
10 0 59675 73080.000000 0       628477.634      6882372.569      1482902.880
10 0 59675 73260.000000 0       871050.771      6447545.442      2754479.689
10 0 59675 73440.000000 0      1067393.201      5772597.400      3925201.916
10 0 59675 73620.000000 0      1204389.752      4883363.965      4952146.699
10 0 59675 73800.000000 0      1271870.713      3813830.998      5797657.172
10 0 59675 73980.000000 0      1263175.849      2604785.368      6430719.103
10 0 59675 74160.000000 0      1175552.809      1302225.348      6828082.417
10 0 59675 74340.000000 0      1010369.363       -44414.876      6975097.850
10 0 59675 74520.000000 0       773132.303     -1384151.621      6866245.242
10 0 59675 74700.000000 0       473309.086     -2666389.894      6505351.238
10 0 59675 74880.000000 0       123955.029     -3842853.686      5905478.972
10 0 59675 75060.000000 0      -258839.601     -4869433.371      5088483.279
10 0 59675 75240.000000 0      -656660.045     -5707883.311      4084254.328
10 0 59675 75420.000000 0     -1049615.730     -6327321.399      2929654.795
10 0 59675 75600.000000 0     -1417290.861     -6705444.618      1667163.390
10 0 59675 75780.000000 0     -1739747.441     -6829398.459       343281.621
10 0 59675 75960.000000 0     -1998531.148     -6696249.252      -993239.972
10 0 59675 76140.000000 0     -2177617.700     -6313026.385     -2293269.608
10 0 59675 76320.000000 0     -2264253.376     -5696340.422     -3509164.508
10 0 59675 76500.000000 0     -2249646.379     -4871600.186     -4596559.162
10 0 59675 76680.000000 0     -2129472.703     -3871879.476     -5515986.397
10 0 59675 76860.000000 0     -1904178.183     -2736511.264     -6234270.150
10 0 59675 77040.000000 0     -1579069.309     -1509483.553     -6725655.569
10 0 59675 77220.000000 0     -1164192.969      -237709.046     -6972648.652
10 0 59675 77400.000000 0      -674018.064      1030757.132     -6966558.365
10 0 59675 77580.000000 0      -126929.919      2248492.509     -6707749.172
10 0 59675 77760.000000 0       455444.774      3370429.806     -6205609.855
10 0 59675 77940.000000 0      1049068.273      4355487.674     -5478240.910
10 0 59675 78120.000000 0      1628452.724      5168059.632     -4551855.676
10 0 59675 78300.000000 0      2167720.330      5779316.982     -3459905.329
10 0 59675 78480.000000 0      2641725.579      6168273.737     -2241934.579
10 0 59675 78660.000000 0      3027193.230      6322565.781      -942195.706
10 0 59675 78840.000000 0      3303818.607      6238899.252       391944.548
10 0 59675 79020.000000 0      3455270.375      5923131.838      1711743.969
10 0 59675 79200.000000 0      3470044.491      5389980.878      2968893.571
10 0 59675 79380.000000 0      3342123.208      4662368.966      4117323.296
10 0 59675 79560.000000 0      3071404.245      3770433.299      5114923.866
99
